{
  "type": "FeatureCollection",
  "features": [
    {
      "type": "Feature",
      "properties": {
        "norad_id": 50032,
        "name": "COSMOS 1408 DEB",
        "group": "cosmos-1408-debris",
        "lat": 44.82316062296778,
        "lon": 56.693704405043064,
        "alt_km": 432.29333227432926,
        "timestamp": "2025-12-21T18:54:58.767086+00:00",
        "meta_object_name": "COSMOS 1408 DEB",
        "meta_object_id": "1982-092RU",
        "meta_epoch": "2025-12-21T04:44:15.700416",
        "meta_mean_motion": 15.45771995,
        "meta_eccentricity": 0.00160807,
        "meta_inclination": 82.5635,
        "meta_ra_of_asc_node": 49.8404,
        "meta_arg_of_pericenter": 177.0061,
        "meta_mean_anomaly": 183.1287,
        "meta_ephemeris_type": 0,
        "meta_classification_type": "U",
        "meta_norad_cat_id": 50032,
        "meta_element_set_no": 999,
        "meta_rev_at_epoch": 22734,
        "meta_bstar": 7.6660607e-05,
        "meta_mean_motion_dot": 3.769e-05,
        "meta_mean_motion_ddot": 0,
        "tle_line1": "1 50032U 82092RU  25355.19740394  .00003769  00000+0  76661-4 0  9992",
        "tle_line2": "2 50032  82.5635  49.8404 0016080 177.0061 183.1287 15.45771995227348"
      },
      "geometry": {
        "type": "Point",
        "coordinates": [
          56.693704405043064,
          44.82316062296778
        ]
      }
    },
    {
      "type": "Feature",
      "properties": {
        "norad_id": 50058,
        "name": "COSMOS 1408 DEB",
        "group": "cosmos-1408-debris",
        "lat": 45.965931907407644,
        "lon": -127.84370486492149,
        "alt_km": 365.90831023898227,
        "timestamp": "2025-12-21T18:54:58.767108+00:00",
        "meta_object_name": "COSMOS 1408 DEB",
        "meta_object_id": "1982-092SW",
        "meta_epoch": "2025-12-21T04:32:04.588800",
        "meta_mean_motion": 15.64578574,
        "meta_eccentricity": 0.00161275,
        "meta_inclination": 82.6126,
        "meta_ra_of_asc_node": 60.4962,
        "meta_arg_of_pericenter": 70.3199,
        "meta_mean_anomaly": 289.9799,
        "meta_ephemeris_type": 0,
        "meta_classification_type": "U",
        "meta_norad_cat_id": 50058,
        "meta_element_set_no": 999,
        "meta_rev_at_epoch": 22936,
        "meta_bstar": 0.00024667562,
        "meta_mean_motion_dot": 0.00024013,
        "meta_mean_motion_ddot": 0,
        "tle_line1": "1 50058U 82092SW  25355.18894200  .00024013  00000+0  24668-3 0  9999",
        "tle_line2": "2 50058  82.6126  60.4962 0016127  70.3199 289.9799 15.64578574229365"
      },
      "geometry": {
        "type": "Point",
        "coordinates": [
          -127.84370486492149,
          45.965931907407644
        ]
      }
    },
    {
      "type": "Feature",
      "properties": {
        "norad_id": 50404,
        "name": "COSMOS 1408 DEB",
        "group": "cosmos-1408-debris",
        "lat": 58.33905602674379,
        "lon": -141.402091457553,
        "alt_km": 550.3601541942016,
        "timestamp": "2025-12-21T18:54:58.767121+00:00",
        "meta_object_name": "COSMOS 1408 DEB",
        "meta_object_id": "1982-092ADS",
        "meta_epoch": "2025-12-21T13:53:39.497568",
        "meta_mean_motion": 15.15068727,
        "meta_eccentricity": 0.0168475,
        "meta_inclination": 82.2035,
        "meta_ra_of_asc_node": 205.9751,
        "meta_arg_of_pericenter": 168.5896,
        "meta_mean_anomaly": 191.9235,
        "meta_ephemeris_type": 0,
        "meta_classification_type": "U",
        "meta_norad_cat_id": 50404,
        "meta_element_set_no": 999,
        "meta_rev_at_epoch": 21327,
        "meta_bstar": 0.0029249565,
        "meta_mean_motion_dot": 0.00079133,
        "meta_mean_motion_ddot": 0,
        "tle_line1": "1 50404U 82092ADS 25355.57892937  .00079133  00000+0  29250-2 0  9996",
        "tle_line2": "2 50404  82.2035 205.9751 0168475 168.5896 191.9235 15.15068727213275"
      },
      "geometry": {
        "type": "Point",
        "coordinates": [
          -141.402091457553,
          58.33905602674379
        ]
      }
    },
    {
      "type": "Feature",
      "properties": {
        "norad_id": 50621,
        "name": "COSMOS 1408 DEB",
        "group": "cosmos-1408-debris",
        "lat": -81.82074815039148,
        "lon": -50.01103282405567,
        "alt_km": 419.91250234846666,
        "timestamp": "2025-12-21T18:54:58.767132+00:00",
        "meta_object_name": "COSMOS 1408 DEB",
        "meta_object_id": "1982-092ALR",
        "meta_epoch": "2025-12-21T05:26:16.339200",
        "meta_mean_motion": 15.57069588,
        "meta_eccentricity": 0.0029095,
        "meta_inclination": 82.5697,
        "meta_ra_of_asc_node": 65.3437,
        "meta_arg_of_pericenter": 121.8542,
        "meta_mean_anomaly": 238.5551,
        "meta_ephemeris_type": 0,
        "meta_classification_type": "U",
        "meta_norad_cat_id": 50621,
        "meta_element_set_no": 999,
        "meta_rev_at_epoch": 22382,
        "meta_bstar": 0.00029679,
        "meta_mean_motion_dot": 0.00021958,
        "meta_mean_motion_ddot": 0,
        "tle_line1": "1 50621U 82092ALR 25355.22657800  .00021958  00000+0  29679-3 0  9995",
        "tle_line2": "2 50621  82.5697  65.3437 0029095 121.8542 238.5551 15.57069588223829"
      },
      "geometry": {
        "type": "Point",
        "coordinates": [
          -50.01103282405567,
          -81.82074815039148
        ]
      }
    }
  ]
}